OBJECT E                
1 61242U 24174E   24269.78452556  .00001861  00000+0  10000-3 0  9997
2 61242  97.4587 275.0599 0014294 279.6026 264.9529 15.16070938    81
